LEASAT 5                
1 20410U 90002B   15113.26528215  .00000000  00000-0  10000-3 0  9994
2 20410  11.1991  18.5789 0002124 193.0230 166.9059  1.00269616 77849
INTELSAT 701 (IS-701)   
1 22871U 93066A   15112.08301828 -.00000238  00000-0  00000+0 0  9997
2 22871   2.6839  71.4579 0004080 325.7720 172.9569  1.00270864 78553
INTELSAT 702 (IS-702)   
1 23124U 94034A   15113.81195655  .00000132  00000-0  10000-3 0  9993
2 23124   3.0314  69.9062 0002037 287.8779 178.9434  1.00273214 90541
INTELSAT 26 (IS-26)     
1 24732U 97007A   15113.38684459  .00000000  00000-0  10000-3 0  9993
2 24732   6.1683  56.2851 0006414   3.2840 356.6384  1.00271628 66478
GALAXY 25 (G-25)        
1 24812U 97026A   15112.36929855 -.00000187  00000-0  00000+0 0  9994
2 24812   0.0561  71.8039 0002798 310.6040 227.5387  1.00270565 65505
INTELSAT 5 (IS-5)       
1 24916U 97046A   15113.79022891 -.00000162  00000-0  00000+0 0  9996
2 24916   1.9991  75.1181 0004899 325.1443 252.6982  1.00270964 64797
INTELSAT 805 (IS-805)   
1 25371U 98037A   15113.29270097 -.00000310  00000-0  10000-3 0  9991
2 25371   0.0310  80.1041 0002763 316.7337 224.0490  1.00272274 61728
INTELSAT 7 (IS-7)       
1 25473U 98052A   15113.20564027 -.00000166  00000-0  00000+0 0  9995
2 25473   1.5794  78.1394 0001684 291.2073 257.4097  1.00271875 60803
AFRISTAR                
1 25515U 98063A   15113.19868677  .00000104  00000-0  00000+0 0  9991
2 25515   1.7736  70.9080 0004822 324.2134 268.3268  1.00274516 60336
INTELSAT 8 (IS-8)       
1 25522U 98065A   15112.49453032 -.00000055  00000-0  00000+0 0  9994
2 25522   0.0153 245.2051 0002059 121.7628 190.2699  1.00271560 60306
GALAXY 27 (G-27)        
1 25922U 99052A   15110.85676853 -.00000027  00000-0  00000+0 0  9990
2 25922   1.6551  77.0388 0006912 344.5903 161.5993  1.00270870 57022
GALAXY 11 (G-11)        
1 26038U 99071A   15113.29557667 -.00000310  00000-0  10000-3 0  9992
2 26038   0.0756 278.2897 0000372 327.7329  15.7924  1.00272046 56266
SIRIUS-1                
1 26390U 00035A   15112.36864990 -.00000055  00000-0  00000+0 0  9993
2 26390  59.8457 236.8271 2640674 268.8256 102.6984  1.00282689 54246
INTELSAT 9 (IS-9)       
1 26451U 00043A   15113.31780115 -.00000293  00000-0  10000-3 0  9991
2 26451   1.9841  75.4209 0002998 293.7220 273.2119  1.00271263 54009
SIRIUS-2                
1 26483U 00051A   15111.44247951  .00000069  00000-0  00000+0 0  9998
2 26483  64.3417 116.7541 2675449 270.5331 244.7803  1.00279271 53570
INTELSAT 12 (IS-12)     
1 26590U 00068A   15113.45099029  .00000000  00000-0  10000-3 0  9999
2 26590   0.0105  74.2552 0002835 309.1897  35.0705  1.00266614 52968
INTELSAT 1R (IS-1R)     
1 26608U 00072A   15113.10179190 -.00000306  00000-0  00000+0 0  9999
2 26608   0.0153 293.5994 0000634 296.9178 326.9452  1.00271449 52836
SIRIUS-3                
1 26626U 00077A   15113.58832561  .00000000  00000-0  10000-3 0  9999
2 26626  64.5055 356.6719 2651968 270.1062  59.9227  1.00296536 52633
XM-1 (ROLL)             
1 26761U 01018A   15112.64541106 -.00000047  00000-0  10000-3 0  9995
2 26761   0.1369 260.8972 0004092 319.1299 107.4258  1.00272525 51171
INTELSAT 10 (IS-10)     
1 26766U 01019A   15113.44723499  .00000000  00000-0  10000-3 0  9995
2 26766   0.0405  63.2108 0002677 333.2738  23.2419  1.00272983 51086
INTELSAT 901 (IS-901)   
1 26824U 01024A   15113.69912520  .00000000  00000-0  10000-3 0  9998
2 26824   0.0752  80.3167 0002401 307.1297  57.6166  1.00267073 50821
INTELSAT 902 (IS-902)   
1 26900U 01039A   15112.94650567  .00000000  00000-0  10000-3 0  9996
2 26900   0.0045 288.9449 0004001 151.4751 172.9865  1.00268858 49943
DIRECTV 4S              
1 26985U 01052A   15113.75000000 -.00000134  00000-0  00000+0 0  9999
2 26985   0.0006 240.5355 0002014 158.4272 341.0227  1.00263180 49168
INTELSAT 904 (IS-904)   
1 27380U 02007A   15112.63938494  .00000025  00000-0  10000-3 0  9996
2 27380   0.0347  51.4337 0002747 340.7141 108.3822  1.00272695 48254
INTELSAT 903 (IS-903)   
1 27403U 02016A   15110.35807103 -.00000263  00000-0  00000+0 0  9991
2 27403   0.0591  59.3989 0003374 330.7044 272.3931  1.00269457 47815
DIRECTV 5 (TEMPO 1)     
1 27426U 02023A   15113.30425127 -.00000083  00000-0  10000-3 0  9999
2 27426   0.0121 127.2759 0003356 279.5041 163.6889  1.00269905 47481
INTELSAT 905 (IS-905)   
1 27438U 02027A   15113.07924094 -.00000209  00000-0  00000+0 0  9992
2 27438   0.0133 275.9298 0002814  97.6751 201.2122  1.00270621 47151
GALAXY 3C (G-3C)        
1 27445U 02030A   15112.84776400  .00000000  00000-0  10000-3 0  9997
2 27445   0.0020 136.6600 0001246 271.6136  12.4195  1.00267787 47110
INTELSAT 906 (IS-906)   
1 27513U 02041A   15110.14551604 -.00000010  00000-0  00000+0 0  9990
2 27513   0.0235 308.2171 0002762  87.0444 289.1661  1.00271930 46170
INTELSAT 907 (IS-907)   
1 27683U 03007A   15110.09168609 -.00000227  00000-0  00000+0 0  9994
2 27683   0.0515  53.7562 0003451 337.1157 182.4776  1.00270935 44546
GALAXY 12 (G-12)        
1 27715U 03013B   15113.01831328  .00000035  00000-0  10000-3 0  9998
2 27715   0.0708  95.3706 0001282 301.8709  51.0835  1.00272973 44168
GALAXY 23 (G-23)        
1 27854U 03034A   15113.59346572 -.00000011  00000-0  00000+0 0  9990
2 27854   0.0142 271.3504 0002755 109.6936 282.9113  1.00272565 42796
GALAXY 13 (HORIZONS-1)  
1 27954U 03044A   15111.43645270  .00000023  00000-0  00000+0 0  9992
2 27954   0.0062  20.6958 0000823  85.3695 133.2158  1.00272847 42343
DIRECTV 7S              
1 28238U 04016A   15113.53772753 -.00000023  00000-0  00000+0 0  9999
2 28238   0.0370  16.6846 0002923  20.6692 248.4167  1.00273171 40241
INTELSAT 10-02          
1 28358U 04022A   15112.77391679 -.00000035  00000-0  10000-3 0  9996
2 28358   0.0046 198.2770 0001879 263.0302  26.8106  1.00271761 39788
XM-3 (RHYTHM)           
1 28626U 05008A   15111.49833874 -.00000230  00000-0  10000-3 0  9992
2 28626   0.0230 103.3964 0000577 171.6703  28.4650  1.00270219 37200
SPACEWAY 1              
1 28644U 05015A   15113.36323970 -.00000126  00000-0  00000+0 0  9998
2 28644   0.0018 203.5946 0000263  92.0442 303.2710  1.00271205 36672
DIRECTV 8               
1 28659U 05019A   15111.43713115 -.00000140  00000-0  00000+0 0  9994
2 28659   0.0146 348.4988 0003423  37.0822 240.1160  1.00271821 36321
GALAXY 28 (G-28)        
1 28702U 05022A   15110.44412916 -.00000210  00000-0  00000+0 0  9990
2 28702   0.0118 318.8644 0001261 229.3042  90.9025  1.00271434 36003
GALAXY 14 (G-14)        
1 28790U 05030A   15112.33880684  .00000012  00000-0  10000-3 0  9991
2 28790   0.0249  57.8758 0002169 305.9062 203.2456  1.00272108 35456
GALAXY 15 (G-15)        
1 28884U 05041A   15110.44303907  .00000055  00000-0  00000+0 0  9997
2 28884   0.0570  55.5255 0000882 311.6340 227.5153  1.00270697 34797
SPACEWAY 2              
1 28903U 05046B   15113.59709082 -.00000150  00000-0  00000+0 0  9994
2 28903   0.0286  10.3206 0000288 273.3796  43.4778  1.00271272 34650
GALAXY 16 (G-16)        
1 29236U 06023A   15113.18385847 -.00000151  00000-0  10000-3 0  9990
2 29236   0.0092 228.2914 0003022 164.7617 145.0261  1.00271242 32421
DIRECTV 9S              
1 29494U 06043A   15113.24890157 -.00000138  00000-0  00000+0 0  9990
2 29494   0.0130 160.4732 0003304 219.7060 179.2863  1.00271460 31261
XM-4 (BLUES)            
1 29520U 06049A   15112.64533461 -.00000047  00000-0  00000+0 0  9990
2 29520   0.0416  71.9818 0000359 183.9857  71.4853  1.00271847 31140
GALAXY 17 (G-17)        
1 31307U 07016B   15111.57264472 -.00000199  00000-0  00000+0 0  9993
2 31307   0.0420  50.1663 0002350 345.7353 288.5664  1.00272019 29218
DIRECTV 10              
1 31862U 07032A   15113.36323852 -.00000127  00000-0  00000+0 0  9995
2 31862   0.0342  56.5346 0000312 241.7767 300.7255  1.00271873 28562
SPACEWAY 3              
1 32018U 07036A   15113.84890921  .00000000  00000-0  10000-3 0  9996
2 32018   0.0502  64.0054 0000889 194.4558 163.7262  1.00267611 28284
INTELSAT 11 (IS-11)     
1 32253U 07044B   15113.24420995 -.00000293  00000-0  10000-3 0  9995
2 32253   0.0020 277.0421 0002530 118.8404 219.9778  1.00270381 27686
HORIZONS-2              
1 32388U 07063B   15113.42254404  .00000000  00000-0  10000-3 0  9990
2 32388   0.0306  74.0436 0003701 347.9730  25.9867  1.00265494 27044
DIRECTV 11              
1 32729U 08013A   15113.18386154 -.00000150  00000-0  00000+0 0  9998
2 32729   0.0276 116.2133 0000214 130.6988 290.9873  1.00271216 26094
GALAXY 18 (G-18)        
1 32951U 08024A   15110.44329825  .00000001  00000-0  00000+0 0  9999
2 32951   0.0242 205.1870 0002328 196.8580 202.7272  1.00271772 25247
INTELSAT 25 (IS-25)     
1 33153U 08034A   15111.08772214 -.00000249  00000-0  00000+0 0  9995
2 33153   0.0065 351.3120 0001905  10.9070 206.6850  1.00270523 24817
GALAXY 19 (G-19)        
1 33376U 08045A   15110.62324477 -.00000164  00000-0  00000+0 0  9993
2 33376   0.0125 176.1679 0003362 205.9143 313.6495  1.00270895 24028
SIRIUS FM-5             
1 35493U 09034A   15113.36987177  .00000000  00000-0  10000-3 0  9993
2 35493   0.0048 255.1272 0001767  47.9290 305.1426  1.00266989 21177
INTELSAT 14 (IS-14)     
1 36097U 09064A   15113.39276631 -.00000298  00000-0  00000+0 0  9991
2 36097   0.0197 283.9594 0002357 114.9011 268.6373  1.00270597 19868
INTELSAT 15 (IS-15)     
1 36106U 09067A   15113.83694235 -.00000209  00000-0  10000-3 0  9995
2 36106   0.0105 293.6773 0002157  94.9379 209.3798  1.00271184 19762
DIRECTV 12              
1 36131U 09075A   15113.14107872 -.00000127  00000-0  10000-3 0  9991
2 36131   0.0049 179.7288 0000061  78.9385 260.2054  1.00271085 19540
INTELSAT 16 (IS-16)     
1 36397U 10006A   15112.36963396 -.00000258  00000-0  00000+0 0  9995
2 36397   0.0369  20.1172 0001885  22.5360 221.4897  1.00269579 18934
XM-5                    
1 37185U 10053A   15112.44822714 -.00000229  00000-0  10000-3 0  9993
2 37185   0.0193 277.0362 0001333  49.7458 319.5322  1.00271058 16593
INTELSAT 17 (IS-17)     
1 37238U 10065B   15111.92259729 -.00000026  00000-0  00000+0 0  9997
2 37238   0.0007  74.8763 0002503 318.0930 214.8109  1.00272378 16092
INTELSAT NEW DAWN       
1 37392U 11016A   15112.97017348  .00000000  00000-0  10000-3 0  9996
2 37392   0.0233 220.8217 0001302 121.7881 250.1698  1.00272480 14404
INTELSAT 18 (IS-18)     
1 37834U 11056A   15113.13606807  .00000029  00000-0  00000+0 0  9990
2 37834   0.0104 270.7364 0001568 101.3912  67.7125  1.00274948 13050
INTELSAT 22 (IS-22)     
1 38098U 12011A   15112.63968223 -.00000083  00000-0  00000+0 0  9993
2 38098   0.0491  22.1926 0001331  21.9753 108.5761  1.00270996 11241
INTELSAT 19 (IS-19)     
1 38356U 12030A   15113.13821012  .00000000  00000-0  10000-3 0  9994
2 38356   0.0401  66.5765 0002976 326.3265  33.7333  1.00269719 10679
INTELSAT 20 (IS-20)     
1 38740U 12043A   15112.89952265  .00000000  00000-0  10000-3 0  9992
2 38740   0.0165 239.0225 0000810  87.9854 275.9776  1.00270617  9993
INTELSAT 21 (IS-21)     
1 38749U 12045A   15110.26281660 -.00000309  00000-0  00000+0 0  9994
2 38749   0.0129 121.9197 0003159 259.3384 223.3936  1.00271342  9778
INTELSAT 23 (IS-23)     
1 38867U 12057A   15110.42355856 -.00000309  00000-0  00000+0 0  9995
2 38867   0.0469  64.8567 0000944 351.2083 251.5766  1.00269832  9246
SIRIUS FM-6             
1 39360U 13058A   15113.03129148 -.00000041  00000-0  00000+0 0  9992
2 39360   0.0148 339.9146 0000834 237.9078 248.0190  1.00271803  5508
INTELSAT 30 (IS-30)     
1 40271U 14062A   15113.00623037  .00000000  00000-0  10000-3 0  9993
2 40271   0.0364  91.3566 0001972 131.9231 254.6218  1.00267208  1946
